STARLINK-11492 [DTC]    
1 62224U 24231G   25244.43502563  .00247044  00000+0  19815-2 0  9999
2 62224  53.1574 314.4738 0002685  26.0220 334.0932 15.69738151 43687
STARLINK-11471 [DTC]    
1 62225U 24231H   25244.90513377  .00213108  00000+0  17143-2 0  9993
2 62225  53.1582 311.7034 0000588  49.3616 310.7453 15.69777200 43769
STARLINK-11475 [DTC]    
1 62226U 24231J   25244.91004238  .00279180  00000+0  22243-2 0  9995
2 62226  53.1570 311.7219 0001672  60.0390 300.0794 15.69799784 43767
STARLINK-11469 [DTC]    
1 62227U 24231K   25244.91985269  .00339815  00000+0  26838-2 0  9994
2 62227  53.1571 311.7869 0001759  69.1138 291.0069 15.69823209 43760
STARLINK-11476 [DTC]    
1 62228U 24231L   25244.89532502  .00391846  00000+0  30702-2 0  9997
2 62228  53.1574 311.6250 0001556  58.6210 301.4960 15.69856630 43777
STARLINK-11485 [DTC]    
1 62229U 24231M   25244.91494068  .00208270  00000+0  16763-2 0  9994
2 62229  53.1583 311.7537 0000397  51.8141 308.2912 15.69779382 43766
STARLINK-11481 [DTC]    
1 62230U 24231N   25244.89051942  .00337598  00000+0  26671-2 0  9998
2 62230  53.1561 312.3261 0001429  71.1673 288.9500 15.69822374 43753
STARLINK-32650          
1 62231U 24231P   25244.65446885  .00079266  00000+0  26592-2 0  9994
2 62231  53.1609  17.8665 0001508  86.0020 274.1154 15.30210362 42826
STARLINK-32636          
1 62232U 24231Q   25245.07157158  .00062379  00000+0  20998-2 0  9995
2 62232  53.1604  15.4944 0001138  77.9885 282.1243 15.30212947 42899
STARLINK-32643          
1 62233U 24231R   25245.05461777  .00111211  00000+0  27472-2 0  9993
2 62233  53.1604   6.1555 0001421  92.2038 267.9130 15.39649770 43018
STARLINK-32652          
1 62234U 24231S   25245.09478681  .00037418  00000+0  12687-2 0  9998
2 62234  53.1621  15.6334 0000815  78.1869 281.9224 15.30212225 42885
STARLINK-32631          
1 62235U 24231T   25245.06357566  .00067389  00000+0  16807-2 0  9992
2 62235  53.1614   6.2119 0001524  82.6376 277.4802 15.39603885 43019
STARLINK-32641          
1 62236U 24231U   25244.64158310  .00081053  00000+0  20152-2 0  9994
2 62236  53.1597   7.8397 0001410  74.6891 285.4270 15.39613989 42958
STARLINK-32632          
1 62262U 24231V   25245.10428228  .00065623  00000+0  22066-2 0  9994
2 62262  53.1612  15.6924 0001406  75.0660 285.0497 15.30225380 42897
STARLINK-11496 [DTC]    
1 62267U 24237A   25245.00771246  .00214913  00000+0  16309-2 0  9996
2 62267  43.0019 114.2714 0002739 265.3831  94.6723 15.70905273 43378
STARLINK-11501 [DTC]    
1 62268U 24237B   25245.03943612  .00297451  00000+0  22268-2 0  9997
2 62268  42.9998 113.6315 0003671 277.3624  82.6827 15.70973924 43338
STARLINK-11491 [DTC]    
1 62269U 24237C   25245.03412729  .00363868  00000+0  26813-2 0  9994
2 62269  42.9994 113.5866 0004285 254.7210 105.3184 15.71151143 43383
STARLINK-11479 [DTC]    
1 62270U 24237D   25245.11364693  .00318297  00000+0  23881-2 0  9999
2 62270  43.0003 113.3317 0001214 280.7768  79.2963 15.70861825 43392
STARLINK-11489 [DTC]    
1 62271U 24237E   25244.13347940  .00350961  00000+0  26211-2 0  9991
2 62271  42.9992 119.7630 0001387 272.4317  87.6391 15.70873311 43239
STARLINK-11494 [DTC]    
1 62272U 24237F   25245.00240589  .00175692  00000+0  13413-2 0  9996
2 62272  43.0005 114.2262 0001786 273.5007  86.5656 15.70886393 43325
STARLINK-11333 [DTC]    
1 62273U 24237G   25244.94945142  .00263191  00000+0  19823-2 0  9999
2 62273  43.0010 114.6938 0002410 250.1079 109.9529 15.70936193 43368
STARLINK-11504 [DTC]    
1 62274U 24237H   25244.99709140  .00287209  00000+0  21559-2 0  9996
2 62274  42.9994 114.1819 0003077 273.6621  86.3894 15.70942456 43322
STARLINK-11495 [DTC]    
1 62275U 24237J   25244.96536587  .00232182  00000+0  17568-2 0  9992
2 62275  43.0012 114.8218 0002394 261.1550  98.9047 15.70921320 43315
STARLINK-11498 [DTC]    
1 62276U 24237K   25244.91758324  .00246148  00000+0  18563-2 0  9996
2 62276  42.9995 114.4359 0001957 243.0590 117.0078 15.70957693 43367
STARLINK-11484 [DTC]    
1 62277U 24237L   25244.92820256  .00356219  00000+0  26421-2 0  9995
2 62277  42.9998 114.5206 0001336 220.3379 139.7389 15.71021788 43361
STARLINK-11487 [DTC]    
1 62278U 24237M   25244.06458798  .00294328  00000+0  22178-2 0  9996
2 62278  43.0011 120.0997 0001310 284.0174  76.0548 15.70831526 43224
STARLINK-11499 [DTC]    
1 62279U 24237N   25244.77552992  .00261261  00000+0  19615-2 0  9998
2 62279  42.9996 115.9767 0002460 244.5429 115.5185 15.71018138 43261
STARLINK-33548          
1 62280U 24237P   25245.22109130  .00076246  00000+0  27491-2 0  9991
2 62280  42.9993 189.8697 0001394 270.4006  89.6685 15.27611733 42497
STARLINK-33544          
1 62281U 24237Q   25245.20950785  .00061848  00000+0  22357-2 0  9998
2 62281  43.0020 201.0341 0001662 276.7053  83.3609 15.27617741 42361
STARLINK-33560          
1 62282U 24237R   25244.60306579  .00033068  00000+0  12071-2 0  9993
2 62282  42.9971 204.2186 0000487 140.4076 219.6812 15.27544329 42184
STARLINK-33547          
1 62283U 24237S   25245.21723612  .00070833  00000+0  25555-2 0  9995
2 62283  43.0001 189.8377 0001411 260.8647  99.2045 15.27623576 42496
STARLINK-33563          
1 62284U 24237T   25245.19793845  .00073254  00000+0  26415-2 0  9994
2 62284  43.0001 200.9426 0002037 250.9039 109.1592 15.27625216 42364
STARLINK-33550          
1 62285U 24237U   25245.18766295  .00067818  00000+0  24495-2 0  9998
2 62285  43.0006 200.8631 0000773 278.0484  82.0280 15.27605472 42362
STARLINK-33564          
1 62286U 24237V   25245.26718141  .00086710  00000+0  31194-2 0  9991
2 62286  43.0019 200.6066 0001868 250.3207 109.7444 15.27624140 42372
STARLINK-33546          
1 62287U 24237W   25245.25947216  .00057349  00000+0  20748-2 0  9997
2 62287  42.9997 200.5439 0000909 275.7684  84.3064 15.27621598 42284
STARLINK-33565          
1 62288U 24237X   25245.18768141  .00051326  00000+0  18591-2 0  9990
2 62288  42.9997 189.6162 0001717 264.7357  95.3298 15.27627037 42496
STARLINK-33549          
1 62289U 24237Y   25245.27103710  .00089254  00000+0  32090-2 0  9997
2 62289  43.0010 200.6355 0001604 258.3118 101.7554 15.27630424 42370
STARLINK-32648          
1 62301U 24239A   25244.55701081  .00068993  00000+0  17196-2 0  9996
2 62301  53.1599 342.7121 0001187  94.6857 265.4283 15.39613333 40564
STARLINK-32594          
1 62302U 24239B   25244.99936197  .00037629  00000+0  12760-2 0  9997
2 62302  53.1602 348.1547 0001405  92.6285 267.4877 15.30204974 40523
STARLINK-32621          
1 62303U 24239C   25245.25681050  .00081541  00000+0  20235-2 0  9991
2 62303  53.1607 339.2585 0001613  77.9549 282.1636 15.39668539 40675
STARLINK-32597          
1 62304U 24239D   25245.28500089  .00162135  00000+0  39650-2 0  9997
2 62304  53.1599 339.4376 0001660  99.2643 260.8550 15.39718120 40670
STARLINK-32649          
1 62305U 24239E   25245.28533155  .00051670  00000+0  17428-2 0  9998
2 62305  53.1625 348.6696 0001755  90.4791 269.6411 15.30232332 40546
STARLINK-32633          
1 62306U 24239F   25244.98830482  .00067759  00000+0  22785-2 0  9995
2 62306  53.1594 350.3670 0001224  78.6363 281.4775 15.30208769 40494
STARLINK-32646          
1 62307U 24239G   25245.26609662  .00094525  00000+0  23396-2 0  9992
2 62307  53.1606 339.3163 0001572  72.3837 287.7339 15.39675718 40672
STARLINK-32706          
1 62308U 24239H   25245.01785407  .00036288  00000+0  12309-2 0  9992
2 62308  53.1631 350.5498 0001241  95.9756 264.1386 15.30212267 40499
STARLINK-32678          
1 62309U 24239J   25245.26642617  .00091524  00000+0  22668-2 0  9998
2 62309  53.1606 339.3169 0001351  86.3107 273.8052 15.39671898 40673
STARLINK-32696          
1 62310U 24239K   25244.62280036  .00027135  00000+0  92464-3 0  9991
2 62310  53.1625 352.3519 0001705  53.1007 307.0150 15.30210903 40434
STARLINK-32700          
1 62311U 24239L   25244.56596608  .00079872  00000+0  19857-2 0  9999
2 62311  53.1598 342.7677 0001107  90.3745 269.7387 15.39622857 40553
STARLINK-32698          
1 62312U 24239M   25245.02102611  .00037259  00000+0  12618-2 0  9990
2 62312  53.1622 350.5678 0001666  90.8658 269.2534 15.30250274 40491
STARLINK-32634          
1 62313U 24239N   25244.56629708  .00072057  00000+0  17957-2 0  9996
2 62313  53.1594 342.7693 0001134  79.7568 280.3565 15.39597832 40565
STARLINK-32651          
1 62314U 24239P   25244.59430706  .00042050  00000+0  14244-2 0  9994
2 62314  53.1590 352.1724 0001566 101.9863 258.1313 15.30187477 40438
STARLINK-32627          
1 62315U 24239Q   25244.56169720  .00055138  00000+0  18599-2 0  9995
2 62315  53.1611 352.6355 0001562  62.0921 298.0237 15.30200672 40426
STARLINK-32596          
1 62316U 24239R   25244.61963309  .00050315  00000+0  16995-2 0  9997
2 62316  53.1622 352.3301 0001364  77.7445 282.3709 15.30198735 40438
STARLINK-32519          
1 62317U 24239S   25245.23391978  .00109398  00000+0  27003-2 0  9992
2 62317  53.1589 339.1120 0001369  82.9221 277.1939 15.39682780 40678
STARLINK-32527          
1 62319U 24239U   25244.99251082  .00064593  00000+0  16109-2 0  9999
2 62319  53.1608 340.4488 0001396  78.3975 281.7187 15.39623970 40637
STARLINK-32481          
1 62320U 24239V   25244.55667840  .00061704  00000+0  15409-2 0  9999
2 62320  53.1603 342.7069 0001358  85.4730 274.6430 15.39604269 40564
STARLINK-32645          
1 62321U 24239W   25245.28467212  .00161787  00000+0  39545-2 0  9991
2 62321  53.1601 339.4309 0001092  86.5205 273.5924 15.39734620 40670
STARLINK-32654          
1 62322U 24239X   25244.59006773 -.00027516  00000+0 -92075-3 0  9997
2 62322  53.1600 352.1454 0001147  98.8534 261.2597 15.30184812 40432
STARLINK-11444 [DTC]    
1 62409U 24249A   25245.27064235  .00399324  00000+0  29571-2 0  9994
2 62409  42.9996 223.7053 0002096 278.7607  81.3024 15.70931108 39845
